[{"OBJECT_NAME":"HST","OBJECT_ID":"1990-037B","EPOCH":"2026-03-09T03:50:04.164288","MEAN_MOTION":15.29473555,"ECCENTRICITY":0.00018372,"INCLINATION":28.4717,"RA_OF_ASC_NODE":43.6133,"ARG_OF_PERICENTER":120.9992,"MEAN_ANOMALY":239.0785,"EPHEMERIS_TYPE":0,"CLASSIFICATION_TYPE":"U","NORAD_CAT_ID":20580,"ELEMENT_SET_NO":999,"REV_AT_EPOCH":77323,"BSTAR":0.0003002261,"MEAN_MOTION_DOT":9.063e-5,"MEAN_MOTION_DDOT":0},{"OBJECT_NAME":"STARLINK-30272","OBJECT_ID":"2023-141W","EPOCH":"2026-03-09T20:33:02.576448","MEAN_MOTION":15.30192704,"ECCENTRICITY":0.00010848,"INCLINATION":53.1598,"RA_OF_ASC_NODE":283.3355,"ARG_OF_PERICENTER":124.0416,"MEAN_ANOMALY":236.0688,"EPHEMERIS_TYPE":0,"CLASSIFICATION_TYPE":"U","NORAD_CAT_ID":57860,"ELEMENT_SET_NO":999,"REV_AT_EPOCH":14035,"BSTAR":2.6917351e-5,"MEAN_MOTION_DOT":4.38e-6,"MEAN_MOTION_DDOT":0}]
